LVM3 R/B                
1 66310U 25249A   25335.02186524  .00045429 -20250-6  12325-2 0  9999
2 66310  21.3491 144.1821 6668973 207.7155  89.9202  3.14240107   913
CMS-03 (GSAT-7R)        
1 66311U 25249B   25335.18239310 -.00000236  00000+0  00000+0 0  9994
2 66311   0.1702 271.9714 0004081 195.8787 121.6075  1.00268959   369
YAOGAN-46               
1 66313U 25250A   25327.07225435 -.00000007  00000+0  00000+0 0  9996
2 66313  20.0335 104.8243 0049237 135.6954 224.7061  5.35115916  1148
SENTINEL-1D             
1 66315U 25251A   25329.92851653  .00000204  00000+0  52376-4 0  9998
2 66315  98.1939 335.1735 0001477 179.8573 180.2628 14.59751375  3083
QPS-SAR-14 (YACHIHOKO-I)
1 66316U 25252A   25334.86488674  .00006181  00000+0  53631-3 0  9992
2 66316  42.0028 140.4818 0007002  67.1754 292.9810 14.97500986  3750
ELECTRON R/B            
1 66317U 25252B   25333.88053486  .01669799  79110-5  19143-2 0  9997
2 66317  41.9889 130.1303 0124668  46.1701 314.9386 15.94243293  3785
STARLINK-35442          
1 66319U 25253A   25335.25002315  .00057178  00000+0  13669-2 0  9992
2 66319  43.0003  52.0846 0001221 257.0322 239.7971 15.40676515  5170
STARLINK-34616          
1 66320U 25253B   25335.27893246  .00134687  00000+0  22567-2 0  9995
2 66320  42.9998  51.7646 0001936 266.1893  93.8745 15.50649474  5234
STARLINK-34615          
1 66321U 25253C   25335.23728353  .00195448  00000+0  20312-2 0  9996
2 66321  42.9992  51.4370 0002306   2.8103 357.2774 15.63215061  5156
STARLINK-35292          
1 66322U 25253D   25335.25002315 -.00414603  00000+0 -10396-1 0  9991
2 66322  43.0008  51.9925 0002202 282.3743 251.7766 15.40900734  5082
STARLINK-35309          
1 66323U 25253E   25334.69645383  .00069894  00000+0  11860-2 0  9991
2 66323  42.9998  55.1339 0000963 273.5467  86.5283 15.50592403  5068
STARLINK-35506          
1 66324U 25253F   25335.21314655  .00167285  00000+0  27895-2 0  9994
2 66324  42.9999  52.1305 0001458 261.0822  98.9873 15.50651952  5143
